"","name","ward","zip","long","lat","type"
"1","PUSH FITNESS Cardio & Strength Training",33,"60618",-87.702505686,41.939254664,"Private"
"2","ROCK HARD GYM",26,"60651",-87.726636685,41.909284059,"Private"
"3","THE WRIGLEY BUILDING HEALTH CLUB",42,"60611",-87.624259761,41.889874791,"Private"
"4","ORANGETHEORY FITNESS",1,"60647",-87.695294599,41.921783848,"Private"
"5","FLY GIRL DANCE & FITNESS",45,"60630",-87.773620284,41.982306615,"Private"
"6","DALE VIDA a tu CUERPO",26,"60647",-87.723010916,41.909814337,"Private"
"7","SALUD Y BIENES TAR FAMILIAR",13,"60629",-87.720324822,41.764232027,"Private"
"8","Chicago Primal LLC",32,"60657",-87.660363212,41.939702878,"Private"
"9","THE NUTRICLUB",36,"60707",-87.795249691,41.930997099,"Private"
"10","BUCKTOWN FITNESS CLUB",2,"60647",-87.680108062,41.910546981,"Private"
"11","PRESIDENTS PLAZA CORPORATE FITNESS CENTER",41,"60631",-87.841638423,41.981134545,"Private"
"12","RIVER NORTH GYM 1",27,"60654",-87.642996182,41.896585191,"Private"
"13","RIO JIU JITSU ACADEMY, LLC",45,"60618",-87.719182582,41.953409008,"Private"
"14","EURO FITNESS",25,"60616",-87.642161938,41.856496436,"Private"
"15","RIO JIU JITSU ACADEMY, LLC",33,"60618",-87.699915628,41.953855684,"Private"
"16","Fitness In TUne",49,"60626",-87.671003629,42.0079321,"Private"
"17","55 FIT",42,"60603",-87.625643504,41.880687879,"Private"
"18","131 S DEARBORN FITNESS CENTER / ELEVATE",42,"60603",-87.629211595,41.87988544,"Private"
"19","THE CHICAGO BALLET",45,"60641",-87.748505485,41.954276923,"Private"
"20","Michael Sanchez",35,"60647",-87.714673879,41.924522018,"Private"
"21","TOTAL FITNESS HOUSE",1,"60642",-87.666511777,41.895975409,"Private"
"22","BTRAINERFITNESS",43,"60614",-87.639139512,41.923127029,"Private"
"23","FARRELL'S EXTREME BODYSHAPPING",32,"60647",-87.707649165,41.924603796,"Private"
"24","RETRO FITNESS CENTER",45,"60641",-87.749912576,41.953274022,"Private"
"25","CREATE YOUR SPACE STUDIO, LLC",1,"60622",-87.686770717,41.898643836,"Private"
"26","DANCEROOM  CHICAGO",38,"60641",-87.761795829,41.953138049,"Private"
"27","SOLIDCORE",44,"60657",-87.644616625,41.94231591,"Private"
"28","LIMON FITNESS CLUB L.L.C.",22,"60623",-87.714915505,41.843721654,"Private"
"29","The Brass Ring",1,"60647",-87.691250009,41.910165147,"Private"
"30","ORANGETHEORY FITNESS",47,"60625",-87.687847225,41.967259179,"Private"
"31","Pure Barre Bucktown",2,"60622",-87.674026366,41.910428421,"Private"
"32","SOLIDCORE",27,"60661",-87.646721187,41.88167803,"Private"
"33","Solidcore",1,"60622",-87.669198029,41.903427866,"Private"
"34","Total Player Development",27,"60612",-87.671767939,41.877432047,"Private"
"35","ILOVEKICKBOXING SOLDIER FIELD",3,"60605",-87.623950871,41.865057898,"Private"
"36","PLANET FITNESS",46,"60613",-87.648041734,41.94835497,"Private"
"37","REPS FITNESS & NUTRITION CENTER",26,"60622",-87.693499838,41.89556585,"Private"
"38","KICK@55 FITNESS LLC",42,"60654",-87.631509262,41.890124973,"Private"
"39","SOLIDCORE CHICAGO",42,"60654",-87.640961375,41.896390925,"Private"
"40","STILETTO DANCE STUDIOS LLC",1,"60622",-87.673880677,41.895853212,"Private"
"41","C5 LTD.",39,"60630",-87.743911507,41.972907989,"Private"
"42","Free Mvmt Shop",44,"60657",-87.663906644,41.948518437,"Private"
"43","Pure Barre Fulton River District",42,"60607",-87.643903428,41.885590101,"Private"
"44","312 Athletic Club",2,"60622",-87.667456246,41.907509904,"Private"
"45","Paramount Personal Training",39,"60633",-87.734476801,41.964368543,"Private"
"46","Logan Square Pilates",35,"60647",-87.711356902,41.931616253,"Private"
"47","CROSSFIT NOTORIOUS",33,"60618",-87.695758275,41.939511922,"Private"
"48","DMSfit, LLC",33,"60618",-87.707322892,41.961302849,"Private"
"49","THE DIAMOND DANCERS DANCE TEAM L.L.C.",29,"60639",-87.773989694,41.909383154,"Private"
"50","CLUB SONRISAS",36,"60639",-87.783631934,41.921965969,"Private"
"51","TDC MMA & FITNESS LLC",27,"60612",-87.681847758,41.887376257,"Private"
"52","YALLAH DANCE STUDIO",42,"60602",-87.627700047,41.882456647,"Private"
"53","PRACTICE CHICAGO LLC",43,"60614",-87.648751192,41.920874529,"Private"
"54","Paramount Personal Training",1,"60647",-87.693513161,41.917630661,"Private"
"55","312 ATHLETIC CLUB LLC",44,"60613",-87.668714618,41.94713985,"Private"
"56","L & C BOXING LLC",27,"60612",-87.684340919,41.888913564,"Private"
"57","STUDIOS FUSE",43,"60614",-87.648502168,41.922304682,"Private"
"58","BE 360",42,"60661",-87.645318316,41.88558234,"Private"
"59","COREPOWER YOGA",43,"60614",-87.653423974,41.921629709,"Private"
"60","Steven Coyne",46,"60613",-87.648729461,41.950021043,"Private"
"61","Club Pilates West Loop",25,"60607",-87.650015215,41.881621524,"Private"
"62","COREPOWER YOGA",27,"60607",-87.659395441,41.884094643,"Private"
"63","CorePower Yoga",11,"60607",-87.6414076,41.867122017,"Private"
"64","BELLION STUDIO",42,"60661",-87.644692947,41.885806216,"Private"
"65","CLUB PILATES",47,"60618",-87.679179717,41.955001087,"Private"
"66","CorePower Yoga",5,"60615",-87.58767122,41.799450397,"Private"
"67","VIP FIT CLUB",35,"60647",-87.713294412,41.932068626,"Private"
"68","COREPOWER YOGA",42,"60611",-87.621958776,41.893262977,"Private"
"69","CorePower Yoga",2,"60610",-87.631995837,41.910486347,"Private"
"70","Flawless Fitness Boutique LLC",19,"60644",-87.678790124,41.720876896,"Private"
"71","Never Surrender INC",7,"60649",-87.569877265,41.759059412,"Private"
"72","SYMMETRY CENTER: THE TRAINER'S GYM",42,"60654",-87.635503076,41.894883091,"Private"
"73","STUDIOS FUSE",43,"60614",-87.648502168,41.922304682,"Private"
"74","DJZ FITNESS",31,"60647",-87.721194734,41.924660621,"Private"
"75","PRENATAL FIT",32,"60614",-87.676659112,41.932193578,"Private"
"76","PURE BARRE CHICAGO STEETERVILLE",42,"60611",-87.61948165,41.893313155,"Private"
"77","CHI 50",32,"60647",-87.683743774,41.914299066,"Private"
"78","ASCEND BY AW",42,"60654",-87.63894329,41.89462001,"Private"
"79","GYMNASIUM",2,"60622",-87.675167714,41.910631415,"Private"
"80","Five Keys Yoga, LLC",47,"60657",-87.674752984,41.939725139,"Private"
"81","LATIN TECHNIQUES DANCE STUDIO",33,"60625",-87.708403992,41.961456378,"Private"
"82","BRIDGEPORT ATHLETICS",11,"60609",-87.655813252,41.830728826,"Private"
"83","MASTER'S HEALTH COACHING",27,"60642",-87.648090264,41.898965335,"Private"
"84","URBAN WARRIOR FITNESS-EDGEWATER",49,"60626",-87.670075333,42.019477154,"Private"
"85","L & C FOCUS FITNESS",31,"60641",-87.727199005,41.934420356,"Private"
"86","ESSENCE OF CARE",46,"60640",-87.657317481,41.964899897,"Private"
"87","Yoga Loft Chicago",42,"60654",-87.628589306,41.889946197,"Private"
"88","Rx Fitness & Barbell, Inc.",1,"60647",-87.692169044,41.93202492,"Private"
"89","9Round",27,"60622",-87.650807818,41.881826302,"Private"
"90","ENRGI CHICAGO",42,"60654",-87.634755003,41.892270733,"Private"
"91","WHOLE BODY KINETICS & STRUCTURAL WELLNESS, LLC",48,"60640",-87.668201574,41.978062908,"Private"
"92","Body Balancing Pilates",42,"60661",-87.641169164,41.88607158,"Private"
"93","FIT ZONE",22,"60623",-87.728336289,41.843881626,"Private"
"94","STRIVE VILLAGE",42,"60654",-87.636386557,41.891662304,"Private"
"95","EXECUTIVE SPORT & FITNESS",42,"60601",-87.630794578,41.886707738,"Private"
"96","Nine R Lincoln Park, LLC",32,"60614",-87.660864297,41.925145678,"Private"
"97","EVOLVE AND ELEVATE",25,"60608",-87.646344666,41.852498757,"Private"
"98","Hard Pressed",42,"60601",-87.624697192,41.887373645,"Private"
"99","Planet Fitness",4,"60653",-87.594956403,41.809553218,"Private"
"100","4EVER FITNESS",39,"60630",-87.730273637,41.96117826,"Private"
"101","SCULPT & SHRED FITNESS-BEVERLY HILLS, INC.",19,"60643",-87.666753608,41.721047474,"Private"
"102","S.M.A.R.T. GOLF & FITNESS INSTRUCTION",2,"60642",-87.661038442,41.912354469,"Private"
"103","ILOVEKICKBOXING.COM - BUCKTOWN",32,"60622",-87.671217383,41.910955131,"Private"
"104","SWEAT WITH SWAGG LIFESTYLE FITNESS, LLC",18,"60652",-87.713686657,41.741285236,"Private"
"105","Spynergy Wicker Park",1,"60622",-87.668854272,41.90343424,"Private"
"106","9Round",46,"60613",NA,NA,"Private"
"107","Hard Pressed",42,"60654",-87.635030123,41.896473425,"Private"
"108","Personal Training by Dee LLC",25,"60608",NA,NA,"Private"
"109","WESTLOOP ATHLETIC CLUB",27,"60607",-87.66186162,41.884281738,"Private"
"110","ACE PERFORMANCE SPORTS AND EDUCATION CENTER, LTD",4,"60653",-87.594956403,41.809553218,"Private"
"111","THE BOXING CLUB",25,"60607",-87.64941767,41.877487653,"Private"
"112","NEW ERA DANCE CO",38,"60634",-87.806775365,41.942906927,"Private"
"113","PILATES PLUS 2, INC.",43,"60614",-87.641529678,41.927066755,"Private"
"114","180 PERSONAL TRAINING",40,"60625",-87.69219147,41.975609227,"Private"
"115","POW!",28,"60607",-87.657157985,41.877430702,"Private"
"116","BLUEPRINT FITNESS",27,"60622",-87.673174345,41.889892829,"Private"
"117","Connect3Today, Ltd",47,"60640",-87.675967102,41.965402263,"Private"
"118","LEGIT FIT LLC",41,"60631",-87.816300515,42.002727424,"Private"
"119","MORNING BIRD STUDIO LLC",47,"60657",-87.672732067,41.94574342,"Private"
"120","The Barre Code",44,"60657",-87.653824877,41.939807278,"Private"
"121","TOTAL RESULTS TRAINING",32,"60657",-87.665436785,41.937513229,"Private"
"122","LANDA SALES",13,"60629",-87.721644654,41.778563467,"Private"
"123","Chicago Fit Enterprises / Studio Fit Chicago",32,"60614",-87.653878053,41.917987264,"Private"
"124","HAJI HEALING SALON",6,"60619",-87.605794235,41.751382997,"Private"
"125","TRAINING REVOLUTION, LLC",1,"60622",-87.674285479,41.908197843,"Private"
"126","ALL LEVEL FITNESS WITH TAB",7,"60617",-87.575176583,41.721088238,"Private"
"127","Janell Elise - Zip & Fit",1,"60622",-87.667487039,41.897822486,"Private"
"128","POWER SCULPT FITNESS",32,"60657",-87.666723543,41.938432678,"Private"
"129","N'VISION STUDIOS INC.",18,"60652",-87.702248292,41.739208955,"Private"
"130","THE FIT INSTITUTE",47,"60618",-87.690892368,41.949575803,"Private"
"131","FIT CODE, LLC",23,"60638",-87.784107014,41.792407535,"Private"
"132","BARE FEET YOGA, LLC",25,"60607",-87.656023942,41.881746849,"Private"
"133","FIT-RESULTS",4,"60605",-87.62727753,41.870634991,"Private"
"134","ADVANCED CRYOTHERAPY AND FITNESS, LLC",27,"60610",-87.64326336,41.901041186,"Private"
"135","Metabolic Fitness Management LLC",41,"60656",-87.807896331,41.974631816,"Private"
"136","GOOD LIFE EVENTS & MORE LLC",14,"60638",-87.744769181,41.798504814,"Private"
"137","Evolve Yoga & Fitness LLC",41,"60656",-87.809242041,41.974597213,"Private"
"138","P.R.O. ENTERPRISES, INC.",25,"60608",-87.662623574,41.856348193,"Private"
"139","THROUGH THE BODY, INC.",27,"60622",-87.672823497,41.890780845,"Private"
"140","OLGA'S FITNESS",18,"60652",-87.721631865,41.7454132,"Private"
"141","TMPLE",44,"60657",-87.648889615,41.93341768,"Private"
"142","LOKAHI DANZAN RYU",19,"60655",-87.680882927,41.678324952,"Private"
"143","GABY FIT DANCE",31,"60639",-87.757073402,41.931281812,"Private"
"144","Vbody Power Fitness LLC",4,"60653",-87.603845247,41.809675366,"Private"
"145","Duet Dance Studio",1,"60647",-87.687791748,41.910423585,"Private"
"146","THE SPACE",5,"60615",-87.583903249,41.799364914,"Private"
"147","MONICA'S CLUB",35,"60618",-87.714741382,41.93340293,"Private"
"148","BIKETTLE",6,"60619",-87.616541993,41.758272184,"Private"
"149","FRED ASTAIRE DANCE STUDIOS",27,"60607",-87.658366649,41.885370201,"Private"
"150","SYNERGY FIT CLUB",19,"60655",-87.712632441,41.691490469,"Private"
"151","Coalition Strength and Conditioning",27,"60612",-87.679113787,41.887591549,"Private"
"152","MODEST TO CHIC LLC",6,"60619",-87.607610059,41.758432431,"Private"
"153","REVIVE",30,"60618",-87.718091576,41.939315573,"Private"
"154","GARDEN ROUTE LLC",1,"60657",-87.668736529,41.904950166,"Private"
"155","ORANGE THEORY FITNESS",43,"60614",-87.64849556,41.922136079,"Private"
"156","MAGIC FITNESS",26,"60639",-87.729189505,41.909737062,"Private"
"157","L A Fitness and Pro Results",42,"60601",-87.625868849,41.884387619,"Private"
"158","BREAKTHROUGH FITNESS CENTER",28,"60624",-87.707085604,41.887402155,"Private"
"159","CLUB ALLEGRIA",31,"60639",-87.74757042,41.924332279,"Private"
"160","Mandala Awareness LLC",42,"60611",-87.62810544,41.895569642,"Private"
"161","L.A. FITNESS INTERNATIONAL, LLC",25,"60607",-87.639098928,41.868889711,"Private"
"162","AERIAL GRAFFITI, LLC",3,"60616",-87.623635047,41.852019013,"Private"
"163","THE SPACE BETWEEN YOGA",42,"60654",-87.635038362,41.890079144,"Private"
"164","Golden Proportion Physique",47,"60618",-87.683473235,41.961101076,"Private"
"165","LIFESTART WELLNESS NETWORK",42,"60601",-87.63162997,41.886706593,"Private"
"166","EDGE ATHLETE LOUNGE",2,"60622",-87.664661313,41.914309528,"Private"
"167","BROOKLYN BOULDERS CHICAGO",25,"60607",-87.652134975,41.880343779,"Private"
"168","LIFESTART WELLNESS NETWORK",42,"60601",-87.624371837,41.88590606,"Private"
"169","CLUB PILATES",2,"60614",-87.660137702,41.918692447,"Private"
"170","K FITNESS",26,"60612",-87.680086519,41.890881805,"Private"
"171","HOKULEA ACADEMY OF POLYNESIAN ARTS LLC",45,"60630",-87.751724218,41.975092132,"Private"
"172","Studio Lagree",27,"60610",-87.634473828,41.908246419,"Private"
"173","STUDIO LAGREE",43,"60614",-87.656332571,41.917953151,"Private"
"174","Urban Athlete",47,"60640",-87.674819118,41.967357849,"Private"
"175","CrossFit Chisel",45,"60641",-87.74959622,41.953503479,"Private"
"176","PROFIT STUDIO",3,"60653",-87.621985021,41.827297532,"Private"
"177","First Step Fitness, Inc",27,"60642",-87.648075459,41.900270398,"Private"
"178","HEALTHY LIVING",25,"60608",-87.680167819,41.852216873,"Private"
"179","Studio Lagree",2,"60607",-87.652649791,41.881579504,"Private"
"180","LIFESTART WELLNESS NETWORK",42,"60606",-87.639637284,41.883565313,"Private"
"181","XSPORT FITNESS",35,"60618",-87.709171602,41.939206559,"Private"
"182","LIFESTART WELLNESS NETWORK",42,"60654",-87.632800561,41.893607874,"Private"
"183","FIT ZONE #2",30,"60641",-87.756788899,41.937329122,"Private"
"184","360 ACTIVE RECOVERY LLC",1,"60647",-87.683317892,41.910270011,"Private"
"185","BOLINGO LLC",45,"60641",-87.727742565,41.952944103,"Private"
"186","STUDIO LAGREE",42,"60611",-87.627116292,41.894199173,"Private"
"187","LIFESTART WELLNESS NETWORK",42,"60606",-87.633899901,41.88205499,"Private"
"188","LIFESTART WELLNESS NETWORK",4,"60605",-87.631884721,41.87588847,"Private"
"189","LIFESTART WELLNESS NETWORK",42,"60602",-87.633255089,41.88184063,"Private"
"190","LIFESTART WELLNESS NETWORK",27,"60607",-87.660157707,41.88673895,"Private"
"191","LIFESTART WELLNESS NETWORK",42,"60606",-87.635233576,41.884499493,"Private"
"192","Goose Island CrossFit",2,"60614",-87.656568218,41.913599114,"Private"
"193","LIFESTART WELLNESS NETWORK",42,"60601",-87.626556085,41.886831512,"Private"
"194","ANDERSONVILLE FIT BODY BOOT CAMP",40,"60640",-87.668502587,41.980796189,"Private"
"195","HOUR OF CHANGE FITNESS, INC",30,"60634",-87.771962569,41.938393528,"Private"
"196","FITNESS STUDIO, WORK HARD, DREAM BIG",31,"60639",-87.726800325,41.93066028,"Private"
"197","ORANGE SHOE PERSONAL FITNESS",48,"60660",-87.668662369,41.98374018,"Private"
"198","BAR METHOD SOUTH LOOP",3,"60616",-87.623987627,41.853846555,"Private"
"199","FITNESS ZONE",36,"60639",-87.746350068,41.916821119,"Private"
"200","VIctory Training",32,"60618",-87.683867238,41.943258579,"Private"
"201","METRO YOGA CHICAGO",40,"60640",-87.673983029,41.979864691,"Private"
"202","Bottom Line Yoga, Inc.",42,"60604",-87.632062286,41.878025655,"Private"
"203","WELLNESS LAB",32,"60646",-87.683477289,41.917751508,"Private"
"204","Pain Cave Fitness, LLC / dba MagMile CrossFit",42,"60611",-87.62771747,41.890760972,"Private"
"205","DANCE THERAPY FIT CLUB",36,"60639",-87.768201068,41.923836398,"Private"
"206","PERFORMANCE TRAINING SYSTEMS CHICAGO",27,"60642",-87.666050717,41.88978926,"Private"
"207","HOUR OF CHANGE FITNESS, INC",1,"60647",-87.692247328,41.910154419,"Private"
"208","Page One Pilates, LLC",25,"60607",-87.651910591,41.882629288,"Private"
"209","KI HOLISTIC CENTER",2,"60614",-87.665031037,41.922222571,"Private"
"210","XSPORT FITNESS",44,"60657",-87.644456472,41.937338437,"Private"
"211","AMPEDUP FITNESS STUDIO",27,"60610",-87.638360801,41.908398412,"Private"
"212","Vitally Fit",41,"60631",-87.806724728,42.016554193,"Private"
"213","LEBLON FITNESS CLUB",42,"60654",-87.639190702,41.894617361,"Private"
"214","BE UNSTOPPABLE TRAINING",9,"60628",-87.620938204,41.694402681,"Private"
"215","URBANITY DANCE CHICAGO LLC",2,"60614",-87.652975339,41.911230778,"Private"
"216","Barry's Bootcamp",42,"60654",-87.628546648,41.893955857,"Private"
"217","BARRY'S BOOTCAMP",43,"60614",-87.64830641,41.916966635,"Private"
"218","Mode Body Boutique",27,"60607",-87.65966035,41.881463025,"Private"
"219","FITNESS CENTER",35,"60618",-87.71339099,41.953959634,"Private"
"220","PURE BARRE LINCOLN PARK",43,"60614",-87.648718329,41.919900327,"Private"
"221","MEDIEVAL MARTIAL ARTS",31,"60641",-87.765485029,41.938477241,"Private"
"222","ETHOS TRAINING SYSTEMS, LLC",27,"60610",-87.636422829,41.897502296,"Private"
"223","RFC PERSONAL TRAINING & SPINNING STUDIO",43,"60614",-87.64095824,41.925687264,"Private"
"224","CARDIO WORKOUT WORLD, INC.",19,"60643",-87.668653862,41.721237716,"Private"
"225","SILENCER ATHLETICS",19,"60643",-87.681092805,41.694399257,"Private"
"226","CrossTown Fitness",25,"60607",-87.653323212,41.881570479,"Private"
"227","AB AND FLOW, LLC",27,"60610",-87.634531468,41.910134884,"Private"
"228","BHEALTHYBFIT",38,"60634",-87.770372116,41.953027255,"Private"
"229","ROW HOUSE",2,"60610",-87.634656655,41.904706192,"Private"
"230","LIFT CHICAGO",42,"60654",-87.637247816,41.893839614,"Private"
"231","HEALTHWORKS MEDICAL GROUP OF ILLINOIS",42,"60661",-87.639725027,41.880699246,"Private"
"232","TOTAL WELLNESS SYSTEMS",32,"60618",-87.685142357,41.937204416,"Private"
"233","G.O.A.T. CLIMB AND CRYO",42,"60654",-87.635689442,41.893276703,"Private"
"234","TAILORED STRENGTH",1,"60622",-87.674285479,41.908197843,"Private"
"235","FIT-RESULTS - LOGAN SQUARE, LLC",35,"60647",-87.713435167,41.93206725,"Private"
"236","POSTURE CONNECTION",47,"60657",-87.671335466,41.943123997,"Private"
"237","SALT AND LIGHT COALITION, NFP",42,"60654",-87.635038362,41.890079144,"Private"
"238","WELLNESS TRAINING",14,"60632",-87.691799519,41.80091646,"Private"
"239","WELLS STREET CROSSFIT",2,"60610",NA,NA,"Private"
"240","WEST LOOP FIT BODY BOOT CAMP",25,"60607",-87.6537426,41.881571873,"Private"
"241","PSRX BODY & SKIN",4,"60605",-87.62606949,41.871184354,"Private"
"242","PILATES PROWORKS CHICAGO WEST LOOP",27,"60661",-87.646607192,41.879117244,"Private"
"243","X-FAT AZZ CYCLING & FITNESS STUDIO",34,"60628",-87.632961684,41.677802698,"Private"
"244","YOGA2.0, LLC",42,"60654",-87.634775018,41.893068791,"Private"
"245","Pure Barre Chicago Lincoln Square",47,"60625",-87.686843654,41.968531574,"Private"
"246","TBC SOUTH LOOP",25,"",-87.632662983,41.867779193,"Private"
"247","POLE APPEAL CHICAGO FITNESS STUDIO",44,"60657",-87.646480716,41.934981178,"Private"
"248","13TH FLOW",3,"60609",-87.626838422,41.794740334,"Private"
"249","GIANY'S TAX SERVICES AND FITNESS STUDIO",36,"60639",-87.772741047,41.920145795,"Private"
"250","Shred415",2,"60614",-87.66282804,41.920331073,"Private"
"251","WINNER GANADOR FITNESS",40,"60659",-87.695759886,41.983028632,"Private"
"252","DMT - Functional Training Center",39,"60630",-87.731596487,41.962386949,"Private"
"253","PUSH INDOOR CYCLING",13,"60638",-87.76154797,41.777538617,"Private"
"254","CAMINO A LA SALUD",13,"60638",-87.746414199,41.778239687,"Private"
"255","CAMINO A LA SALUD",23,"60629",-87.729089014,41.77847132,"Private"
"256","FITNESS HOUSE",31,"60641",-87.755203298,41.938830025,"Private"
"257","Equinox",43,"60614",-87.647832875,41.924934719,"Private"
"258","HIGH BRIDGE PILATES",47,"60613",-87.668896666,41.954146599,"Private"
"259","MYSTICAL CRYSTALS",23,"60638",-87.779518984,41.793083766,"Private"
"260","THE WELL",3,"60616",-87.625153538,41.844614023,"Private"
"261","ORANGE THEORY FITNESS",32,"60622",-87.669059695,41.910721184,"Private"
"262","CHICAGO HUMAN RHYTHM PROJECT",42,"60605",-87.62442948,41.876707652,"Private"
"263","Pilates Chicago",48,"60660",-87.669938157,41.992623027,"Private"
"264","ANTHOS TRAINING CLUBS",5,"60615",-87.586810641,41.799677333,"Private"
"265","MBM DANCE COMPANY",17,"60620",-87.634543135,41.750885242,"Private"
"266","South Loop Strength & Conditioning",4,"60605",-87.630504489,41.873751314,"Private"
"267","Valor Training Company, LLC",41,"60656",-87.807896331,41.974631816,"Private"
"268","CROSSFIT CE & COMPETITIVE EDGE",1,"60622",-87.670504654,41.896129367,"Private"
"269","FITNESS FORMULA CLUBS - HALSTED STREET",44,"60657",-87.649441587,41.940855336,"Private"
"270","Fulton River Fitness LLC",27,"60642",-87.653239103,41.894981917,"Private"
"271","FITNESS FORMULA CLUBS - EAST LAKEVIEW",46,"60613",-87.644548158,41.950172565,"Private"
"272","PHYZEKE DANCE ACADEMY",1,"60622",-87.669418428,41.89614811,"Private"
"273","ZICYASA LLC",2,"60607",-87.632855483,41.89656175,"Private"
"274","ROW HOUSE FULTON MARKET",27,"60661",-87.6473242,41.885575342,"Private"
"275","POLESTRONG BODYWORKS",1,"60622",-87.6867337,41.89728623,"Private"
"276","YOGA REJUVENATION",44,"60613",-87.658654217,41.949648443,"Private"
"277","Shred415",1,"60622",-87.674058604,41.908052997,"Private"
"278","ISIS NU U",38,"60656",-87.836841018,41.963142058,"Private"
"279","SILVIA'S WELLNESS CENTER",37,"60651",-87.726050309,41.899171123,"Private"
"280","RUNAWAY",42,"60611",-87.621483467,41.890971723,"Private"
"281","CLUB 33",27,"60610",-87.643129906,41.905637975,"Private"
"282","Goodman Elite Training",27,"60612",-87.671767939,41.877432047,"Private"
"283","CG STRENGTH",16,"60629",-87.692524798,41.786534546,"Private"
"284","COMFY FITNESS, INC.",32,"60647",-87.67756275,41.920180274,"Private"
"285","FIT ROSITA",30,"60639",-87.765902887,41.925659486,"Private"
"286","CENTERED ON NORTH",2,"60610",-87.639947793,41.910984968,"Private"
"287","Pure Barre Chicago South Loop",3,"60605",-87.624236071,41.864730615,"Private"
"288","SCULPT PLUS PILATES LLC",3,"60605",-87.627194136,41.86397298,"Private"
"289","THE FITNESS ANNEX LLC",3,"60609",-87.630404924,41.796234875,"Private"
"290","The Total Training Company",27,"60610",-87.634804168,41.897303739,"Private"
"291","NUTRICION FAMILIAR #2 INC.",23,"60629",-87.707643893,41.779008831,"Private"
"292","INNOVATION FITNESS",31,"60639",-87.756375363,41.926346636,"Private"
"293","HYD SPORT CENTER",31,"60639",-87.734569543,41.924281026,"Private"
"294","PANCHITOS FIT",31,"60647",-87.721823299,41.924652941,"Private"
"295","WARRIOR INSTITUTE OF CHICAGO",19,"60643",-87.669168901,41.721013449,"Private"
"296","Shred415",NA,"",NA,NA,"Private"
"297","PILATES ADVANTAGE",46,"60613",-87.650861589,41.95531362,"Private"
"298","Webster Place Athletic Club",2,"60614",-87.665367957,41.921497511,"Private"
"299","EQUINOX LINCOLN PARK, INC.",43,"60614",-87.633735719,41.914342199,"Private"
"300","MOVEMENT MED",42,"60611",-87.621438365,41.892689628,"Private"
"301","KARYN'S",32,"60622",-87.667609837,41.91299941,"Private"
"302","JIM KARAS PERSONAL TRAINING",43,"60614",-87.654663422,41.929510712,"Private"
"303","LORENA'S DANCE STUDIO",35,"60625",-87.719931048,41.968440521,"Private"
"304","The Pilates Loft of Chicago, LLC",27,"60642",-87.648961925,41.89626551,"Private"
"305","FULTON FIT HOUSE INC.",27,"60607",-87.662815225,41.886689527,"Private"
"306","CHICAGO MUAY THAI KICKBOXING CLUB",2,"60614",-87.666281071,41.92311798,"Private"
"307","POWERED BY MOVEMENT CROSSFIT, LLC",48,"60660",-87.66487969,41.986712556,"Private"
"308","FLOW INC",43,"60614",-87.6391693,41.923176064,"Private"
"309","KENYAS SALON",25,"60608",-87.675673808,41.853208159,"Private"
"310","STELLA'S CARDIO BLAST",13,"60638",-87.763265087,41.77813106,"Private"
"311","Evolve Fitness Chicago",47,"60657",-87.671359809,41.939770137,"Private"
"312","KRAV MAGA ILLINOIS",41,"60656",-87.811866439,41.974506729,"Private"
"313","Orange Theory Fitness",46,"60613",-87.649729178,41.950229577,"Private"
"314","STRIVE 4 FITNESS",23,"60638",-87.787757141,41.79211864,"Private"
"315","ORANGETHEORY FITNESS",47,"60618",-87.688394301,41.942131869,"Private"
"316","LUX WELLNESS STUDIO",27,"60642",-87.647891186,41.896378173,"Private"
"317","BODY TIME CHICAGO",32,"60657",-87.662131103,41.934851963,"Private"
"318","Movement Republic CrossFit",47,"60640",-87.674742789,41.964163633,"Private"
"319","BJJXYOGASTUDIO LLC",11,"60609",-87.659474562,41.826880913,"Private"
"320","HOTWORX CHICAGO",43,"60614",-87.659592322,41.925165205,"Private"
"321","ANYTIME FITNESS",1,"60622",-87.669196101,41.89593214,"Private"
"322","OTG BOOT CAMP INC.",27,"60642",-87.647891186,41.896378173,"Private"
"323","WINDY CITY WEDDING DANCE",42,"60605",-87.62442948,41.876707652,"Private"
"324","barre3 Chicago - West Loop",27,"60607",-87.654315367,41.885144989,"Private"
"325","Physical Therapy and Cafe Integrated (PTCI)",37,"60639",-87.763717745,41.909290254,"Private"
"326","LIFESTART WELLNESS NETWORK",42,"60602",-87.632242081,41.882797707,"Private"
"327","CLUB PILATES WICKER PARK",1,"60622",-87.671213348,41.906236605,"Private"
"328","New Wicker Park Fitness, LLC",1,"60622",-87.671224369,41.903175065,"Private"
"329","ORANGETHEORY FITNESS",32,"60657",-87.66869065,41.936405846,"Private"
"330","LIFESTART WELLNESS NETWORK",41,"60631",-87.845674416,41.981063197,"Private"
"331","NUTRIFIT 24",31,"60639",-87.756370413,41.926210538,"Private"
"332","Feast Fitness LLC",47,"60640",-87.674730745,41.963711224,"Private"
"333","ANYTIME FITNESS",1,"60647",-87.687791748,41.910423585,"Private"
"334","FIT-N-HEALTHY XPRESS",35,"60639",-87.726693148,41.916846636,"Private"
"335","Revolution One Fitness",47,"60618",-87.685564023,41.954165596,"Private"
"336","MASSEYFIT, LTD.",2,"60622",-87.66726606,41.900448122,"Private"
"337","Core Evolution",42,"60654",-87.629862671,41.894009394,"Private"
"338","ILOVEKICKBOXING.COM - LINCOLN SQUARE",47,"60625",-87.688729635,41.967745433,"Private"
"339","STRETCHLAB OLD TOWN",43,"60614",-87.634926371,41.913343286,"Private"
"340","EXTREMA NUTRICION # 2",14,"60632",-87.703543112,41.798224308,"Private"
"341","D3:DRE'S DIESEL DOME,/ D3 BOOT CAMP",3,"60616",-87.625153538,41.844614023,"Private"
"342","WELL-FIT PERFORMANCE LLC",27,"60622",-87.669705704,41.890226801,"Private"
"343","PURE BARRE",44,"60657",-87.668550693,41.941036594,"Private"
"344","ORANGETHEORY FITNESS",42,"60601",-87.624313887,41.884636249,"Private"
"345","Transform Personal Training LLC - Lakeview Fit Body",44,"60657",-87.644234509,41.939482768,"Private"
"346","EGOSCUE CHICAGO",2,"60622",-87.67305724,41.910443954,"Private"
"347","Platform Pilates",42,"60654",-87.636065857,41.894072904,"Private"
"348","FITNESS STUDIO",50,"60659",-87.705879869,41.997559679,"Private"
"349","ROW HOUSE LINCOLN PARK",2,"60614",-87.660243542,41.918768502,"Private"
"350","BIKETTLE",26,"60639",-87.736022592,41.909649421,"Private"
"351","CROSS FIT BEVERLY",19,"60655",-87.697414142,41.691499581,"Private"
"352","LIVE AND BELIEVE WELLNESS LLC",19,"60643",-87.673252754,41.720957148,"Private"
"353","Studio 8 Pilates",47,"60613",-87.674946851,41.948443283,"Private"
"354","JASON COLLEY PERFORMANCE AND RECOVERY SYSTEMS",NA,"60613",-87.648729461,41.950021043,"Private"
"355","FIRST ASCENT HUMBOLT PARK",42,"60602",-87.628021652,41.883422637,"Private"
"356","Pure Barre Chicago West Loop",25,"60607",-87.657122624,41.881726219,"Private"
"357","CEDE",22,"60623",-87.7134709,41.846138735,"Private"
"358","Lisa Spring",32,"60657",-87.659134217,41.933012591,"Private"
"359","TANY'S",40,"60659",-87.699306895,41.992049336,"Private"
"360","KUK SOOL WON OF CHICAGO",19,"60643",-87.681731091,41.705207989,"Private"
"361","FIRST ASCENT CLIMBING & FITNESS",35,"60618",-87.709950257,41.945347303,"Private"
"362","FIRST ASCENT HUMBOLDT PARK",26,"60622",-87.701021744,41.896198663,"Private"
"363","Kru Strength & Fitness LLC",47,"60640",-87.668127955,41.974926486,"Private"
"364","PILATES AND COFFEE, LLC",32,"60618",-87.682655351,41.94327515,"Private"
"365","Planet Fitness",42,"60611",-87.620967638,41.891099617,"Private"
"366","NUTRICELH7",36,"60639",-87.773707821,41.923749523,"Private"
"367","Train Moment",42,"60661",-87.644078872,41.885083374,"Private"
"368","ALL IN MOTION",25,"60607",-87.650956939,41.880002725,"Private"
"369","SIRRON PILATES, LLC",40,"60640",-87.668512222,41.980913857,"Private"
"370","GO INFINITE INC.",27,"60622",-87.702823929,41.895698353,"Private"
"371","FIRST ASCENT",46,"60640",-87.659088346,41.967665492,"Private"
"372","360",3,"60616",-87.623668934,41.841050592,"Private"
"373","ORANGETHEORY FITNESS",47,"60640",-87.668132999,41.972904167,"Private"
"374","AIDA'S FITNESS & NUTRITION",38,"60634",-87.806775365,41.942906927,"Private"
"375","NEW SOUTHPORT FITNESS LLC",44,"60657",-87.663781935,41.943845601,"Private"
"376","SAM COLONNA BOXING, MMA AND FITNESS, LLC",12,"60632",-87.690058613,41.830296068,"Private"
"377","BODI SHAK",46,"60640",-87.658851774,41.967298487,"Private"
"378","FITPRO WEST LOOP, LLC",42,"60661",-87.642219133,41.878535775,"Private"
"379","VISION QUEST, LLC",32,"60647",-87.680787559,41.927491952,"Private"
"380","HIGH IMPACT FIT CLUB",13,"60629",-87.722786583,41.773942362,"Private"
"381","L & A HEALING STUDIO",3,"60616",-87.624013576,41.854914315,"Private"
"382","GALTER LIFE CENTER",40,"60625",-87.701202298,41.975655883,"Private"
"383","PURE BARRE RIVER NORTH",42,"60611",-87.62808317,41.894767299,"Private"
"384","Pure Barre - Streeterville",42,"60611",-87.61948165,41.893313155,"Private"
"385","BRONZE 47",3,"60653",-87.613644499,41.809538332,"Private"
"386","JAGUAR FITNESS & NUTRITION",27,"60642",-87.647891186,41.896378173,"Private"
"387","VIVE HEALTHY SPORT AND NUTRITION, INC.",25,"60608",-87.651269705,41.857917337,"Private"
"388","GALTER LIFE CENTER",40,"60625",-87.701202298,41.975655883,"Private"
"389","FORM FOLLOWS FITNESS LLC",47,"60618",-87.681637989,41.954223816,"Private"
"390","ANYTIME FITNESS CHICAGO BROADWAY",48,"60640",-87.659836343,41.980518132,"Private"
"391","MONTROSE FIT",35,"60618",-87.716496344,41.961196817,"Private"
"392","CHICAGO FIT DANCE MI LINDO SAN JOSE",27,"60651",-87.714151929,41.895370871,"Private"
"393","The Train Station, LLC",19,"60655",-87.719444268,41.691395995,"Private"
"394","ADRI'S ZUMBA",36,"60639",-87.768259621,41.92351457,"Private"
"395","DAN CARE TRAINING AND DEVELOPMENT CENTER",19,"60643",-87.680858844,41.677596892,"Private"
"396","PURE PILATES CHICAGO",27,"60642",-87.648961925,41.89626551,"Private"
"397","Retro Fitness",42,"60604",-87.624459801,41.877987807,"Private"
"398","ELITE STRENGTH & FITNESS, LLC",40,"60659",-87.700123418,41.986211751,"Private"
"399","CrossTown Fitness",44,"60613",-87.649636584,41.947401735,"Private"
"400","Fempress Inc",25,"60608",-87.649929695,41.853301464,"Private"
"401","FITNESS WITH NINA",36,"60639",-87.749803416,41.916993461,"Private"
"402","RSTR",3,"60605",-87.623950871,41.865057898,"Private"
"403","tactical fighting systems, krav maga force, defence lab chicago",25,"60607",-87.6537426,41.881571873,"Private"
"404","Club Pilates River North",42,"60654",-87.633831645,41.895489778,"Private"
"405","SWEAT",43,"60614",-87.654424564,41.914582272,"Private"
"406","primary crossfit llc",48,"60640",-87.655116079,41.974842545,"Private"
"407","Spindle Fitness",43,"60614",-87.657983335,41.932459142,"Private"
"408","LIGHTSPACE PILATES & WELLNESS",43,"60614",-87.644887373,41.932150931,"Private"
"409","VITALITY YOGA AND BODYWORK, LLC",49,"60626",-87.662013311,42.008494547,"Private"
"410","Noyes Steinman Companies, LLC",4,"60605",-87.630771512,41.872780614,"Private"
"411","Mayweather Boxing + Fitness",42,"60654",-87.634863728,41.889861871,"Private"
"412","INFERNO BARRE AND STURIO",3,"60609",-87.626063007,41.803005619,"Private"
"413","AVONDALE FITNESS AND NUTRITION",33,"60618",-87.701283406,41.939258301,"Private"
"414","F45 Training Mount Greenwood",19,"60655",-87.702657509,41.691652336,"Private"
"415","BELLAGIO NUTRITION STUDIO",30,"60634",-87.766684457,41.939648747,"Private"
"416","RESOLVE",43,"60614",-87.64990734,41.921687786,"Private"
"417","PILATES PRACTICE",2,"60610",-87.630052365,41.901124441,"Private"
"418","TARI FIT CLUB CHICAGO",18,"60652",-87.702331424,41.75269645,"Private"
"419","ROCK HARD GYM",26,"60651",-87.726636685,41.909284059,"Private"
"420","55 FIT",42,"60603",-87.625643504,41.880687879,"Private"
"421","SIMPLY SEDUCTIVE DANCE",6,"60619",-87.624375107,41.750031913,"Private"
"422","131 S DEARBORN FITNESS CENTER / ELEVATE",42,"60603",-87.629211595,41.87988544,"Private"
"423","PRESIDENTS PLAZA CORPORATE FITNESS CENTER",41,"60631",-87.841638423,41.981134545,"Private"
"424","FARRELL'S EXTREME BODYSHAPPING",32,"60647",-87.707649165,41.924603796,"Private"
"425","FLY GIRL DANCE & FITNESS",45,"60630",-87.773620284,41.982306615,"Private"
"426","RETRO FITNESS CENTER",45,"60641",-87.749912576,41.953274022,"Private"
